COSMOS 1933             
1 18958U 88020A   26055.07834860  .00003536  00000+0  17326-3 0  9991
2 18958  82.5101 264.3809 0002760 239.6698 120.4263 15.17846732 48161
SL-3 R/B                
1 19046U 88032B   26055.49883259  .00006115  00000+0  28728-3 0  9999
2 19046  97.5175  38.8007 0024149 281.1431  78.7088 15.19727393 50103
SL-16 R/B               
1 19120U 88039B   26055.45147009 -.00000032  00000+0  74656-5 0  9997
2 19120  71.0133  96.5427 0021964 354.0973   5.9889 14.19613669956506
COSMOS 1953             
1 19210U 88050A   26055.40053489  .00009508  00000+0  34362-3 0  9997
2 19210  82.5097 171.6049 0011701 166.3055 193.8505 15.28248976 35753
SL-8 R/B                
1 19257U 88053B   26055.52428701  .00000230  00000+0  83207-4 0  9993
2 19257  74.0480 136.7328 0021028 318.0854 144.5691 14.38907039974702
COSMOS 1975             
1 19573U 88093A   26055.23400848  .00007867  00000+0  28793-3 0  9999
2 19573  82.5204 131.1881 0010939 211.1961 148.8630 15.27827522 17351
SL-14 R/B               
1 19574U 88093B   26055.53978089  .00000520  00000+0  56927-4 0  9990
2 19574  82.5283  54.3904 0022332  82.2902  38.9718 14.85638416999083
SL-16 R/B               
1 19650U 88102B   26055.48427285 -.00000239  00000+0 -96436-4 0  9995
2 19650  71.0002 179.2797 0013190  21.7708 338.3973 14.16151014925022
INTERCOSMOS 24          
1 20261U 89080A   26055.22030520  .00000624  00000+0  18405-3 0  9990
2 20261  82.6044 113.1742 1187110 324.1131  28.5540 12.59535407665103
SL-14 R/B               
1 20262U 89080C   26055.35258068  .00000607  00000+0  18145-3 0  9996
2 20262  82.5967 181.7459 1230026 215.2342 136.1117 12.50474153658482
DELTA 1 R/B             
1 20323U 89089B   26055.51530284  .00000317  00000+0  87067-4 0  9992
2 20323  97.0714 265.0487 0069543 163.1254 197.2281 14.50650688893824
ARIANE 40 R/B           
1 20443U 90005H   26055.19322781  .00000233  00000+0  87525-4 0  9996
2 20443  98.3115 116.2549 0009107 241.5792 118.4479 14.39860434890864
