CCSDS_OMM_VERS = 2.0
CREATION_DATE  = 
ORIGINATOR     = 

OBJECT_NAME    = COSMOS 1933
OBJECT_ID      = 1988-020A
CENTER_NAME    = EARTH
REF_FRAME      = TEME
TIME_SYSTEM    = UTC
MEAN_ELEMENT_THEORY = SGP/SGP4

EPOCH          = 2026-02-24T01:52:49.319040
MEAN_MOTION    = 15.17846732
ECCENTRICITY   = .00027604
INCLINATION    = 82.5101
RA_OF_ASC_NODE = 264.3809
ARG_OF_PERICENTER = 239.6698
MEAN_ANOMALY   = 120.4263

EPHEMERIS_TYPE = 0
CLASSIFICATION_TYPE = U
NORAD_CAT_ID   = 18958
ELEMENT_SET_NO = 999
REV_AT_EPOCH   = 4816
BSTAR          = .17326384E-3
MEAN_MOTION_DOT = .3536E-4
MEAN_MOTION_DDOT = 0

CCSDS_OMM_VERS = 2.0
CREATION_DATE  = 
ORIGINATOR     = 

OBJECT_NAME    = SL-3 R/B
OBJECT_ID      = 1988-032B
CENTER_NAME    = EARTH
REF_FRAME      = TEME
TIME_SYSTEM    = UTC
MEAN_ELEMENT_THEORY = SGP/SGP4

EPOCH          = 2026-02-24T11:58:19.135776
MEAN_MOTION    = 15.19727393
ECCENTRICITY   = .0024149
INCLINATION    = 97.5175
RA_OF_ASC_NODE = 38.8007
ARG_OF_PERICENTER = 281.1431
MEAN_ANOMALY   = 78.7088

EPHEMERIS_TYPE = 0
CLASSIFICATION_TYPE = U
NORAD_CAT_ID   = 19046
ELEMENT_SET_NO = 999
REV_AT_EPOCH   = 5010
BSTAR          = .28728E-3
MEAN_MOTION_DOT = .6115E-4
MEAN_MOTION_DDOT = 0

CCSDS_OMM_VERS = 2.0
CREATION_DATE  = 
ORIGINATOR     = 

OBJECT_NAME    = SL-16 R/B
OBJECT_ID      = 1988-039B
CENTER_NAME    = EARTH
REF_FRAME      = TEME
TIME_SYSTEM    = UTC
MEAN_ELEMENT_THEORY = SGP/SGP4

EPOCH          = 2026-02-24T10:50:07.015776
MEAN_MOTION    = 14.19613669
ECCENTRICITY   = .0021964
INCLINATION    = 71.0133
RA_OF_ASC_NODE = 96.5427
ARG_OF_PERICENTER = 354.0973
MEAN_ANOMALY   = 5.9889

EPHEMERIS_TYPE = 0
CLASSIFICATION_TYPE = U
NORAD_CAT_ID   = 19120
ELEMENT_SET_NO = 999
REV_AT_EPOCH   = 95650
BSTAR          = .74656E-5
MEAN_MOTION_DOT = -.32E-6
MEAN_MOTION_DDOT = 0

CCSDS_OMM_VERS = 2.0
CREATION_DATE  = 
ORIGINATOR     = 

OBJECT_NAME    = COSMOS 1953
OBJECT_ID      = 1988-050A
CENTER_NAME    = EARTH
REF_FRAME      = TEME
TIME_SYSTEM    = UTC
MEAN_ELEMENT_THEORY = SGP/SGP4

EPOCH          = 2026-02-24T09:36:46.214496
MEAN_MOTION    = 15.28248976
ECCENTRICITY   = .0011701
INCLINATION    = 82.5097
RA_OF_ASC_NODE = 171.6049
ARG_OF_PERICENTER = 166.3055
MEAN_ANOMALY   = 193.8505

EPHEMERIS_TYPE = 0
CLASSIFICATION_TYPE = U
NORAD_CAT_ID   = 19210
ELEMENT_SET_NO = 999
REV_AT_EPOCH   = 3575
BSTAR          = .34362E-3
MEAN_MOTION_DOT = .9508E-4
MEAN_MOTION_DDOT = 0

CCSDS_OMM_VERS = 2.0
CREATION_DATE  = 
ORIGINATOR     = 

OBJECT_NAME    = SL-8 R/B
OBJECT_ID      = 1988-053B
CENTER_NAME    = EARTH
REF_FRAME      = TEME
TIME_SYSTEM    = UTC
MEAN_ELEMENT_THEORY = SGP/SGP4

EPOCH          = 2026-02-24T12:34:58.397664
MEAN_MOTION    = 14.38907039
ECCENTRICITY   = .0021028
INCLINATION    = 74.0480
RA_OF_ASC_NODE = 136.7328
ARG_OF_PERICENTER = 318.0854
MEAN_ANOMALY   = 144.5691

EPHEMERIS_TYPE = 0
CLASSIFICATION_TYPE = U
NORAD_CAT_ID   = 19257
ELEMENT_SET_NO = 999
REV_AT_EPOCH   = 97470
BSTAR          = .83207E-4
MEAN_MOTION_DOT = .23E-5
MEAN_MOTION_DDOT = 0

CCSDS_OMM_VERS = 2.0
CREATION_DATE  = 
ORIGINATOR     = 

OBJECT_NAME    = COSMOS 1975
OBJECT_ID      = 1988-093A
CENTER_NAME    = EARTH
REF_FRAME      = TEME
TIME_SYSTEM    = UTC
MEAN_ELEMENT_THEORY = SGP/SGP4

EPOCH          = 2026-02-24T05:36:58.332672
MEAN_MOTION    = 15.27827522
ECCENTRICITY   = .0010939
INCLINATION    = 82.5204
RA_OF_ASC_NODE = 131.1881
ARG_OF_PERICENTER = 211.1961
MEAN_ANOMALY   = 148.8630

EPHEMERIS_TYPE = 0
CLASSIFICATION_TYPE = U
NORAD_CAT_ID   = 19573
ELEMENT_SET_NO = 999
REV_AT_EPOCH   = 1735
BSTAR          = .28793E-3
MEAN_MOTION_DOT = .7867E-4
MEAN_MOTION_DDOT = 0

CCSDS_OMM_VERS = 2.0
CREATION_DATE  = 
ORIGINATOR     = 

OBJECT_NAME    = SL-14 R/B
OBJECT_ID      = 1988-093B
CENTER_NAME    = EARTH
REF_FRAME      = TEME
TIME_SYSTEM    = UTC
MEAN_ELEMENT_THEORY = SGP/SGP4

EPOCH          = 2026-02-24T12:57:17.068896
MEAN_MOTION    = 14.85638416
ECCENTRICITY   = .0022332
INCLINATION    = 82.5283
RA_OF_ASC_NODE = 54.3904
ARG_OF_PERICENTER = 82.2902
MEAN_ANOMALY   = 38.9718

EPHEMERIS_TYPE = 0
CLASSIFICATION_TYPE = U
NORAD_CAT_ID   = 19574
ELEMENT_SET_NO = 999
REV_AT_EPOCH   = 99908
BSTAR          = .56927E-4
MEAN_MOTION_DOT = .52E-5
MEAN_MOTION_DDOT = 0

CCSDS_OMM_VERS = 2.0
CREATION_DATE  = 
ORIGINATOR     = 

OBJECT_NAME    = SL-16 R/B
OBJECT_ID      = 1988-102B
CENTER_NAME    = EARTH
REF_FRAME      = TEME
TIME_SYSTEM    = UTC
MEAN_ELEMENT_THEORY = SGP/SGP4

EPOCH          = 2026-02-24T11:37:21.174240
MEAN_MOTION    = 14.16151014
ECCENTRICITY   = .001319
INCLINATION    = 71.0002
RA_OF_ASC_NODE = 179.2797
ARG_OF_PERICENTER = 21.7708
MEAN_ANOMALY   = 338.3973

EPHEMERIS_TYPE = 0
CLASSIFICATION_TYPE = U
NORAD_CAT_ID   = 19650
ELEMENT_SET_NO = 999
REV_AT_EPOCH   = 92502
BSTAR          = -.96436E-4
MEAN_MOTION_DOT = -.239E-5
MEAN_MOTION_DDOT = 0

CCSDS_OMM_VERS = 2.0
CREATION_DATE  = 
ORIGINATOR     = 

OBJECT_NAME    = INTERCOSMOS 24
OBJECT_ID      = 1989-080A
CENTER_NAME    = EARTH
REF_FRAME      = TEME
TIME_SYSTEM    = UTC
MEAN_ELEMENT_THEORY = SGP/SGP4

EPOCH          = 2026-02-24T05:17:14.369280
MEAN_MOTION    = 12.59535407
ECCENTRICITY   = .118711
INCLINATION    = 82.6044
RA_OF_ASC_NODE = 113.1742
ARG_OF_PERICENTER = 324.1131
MEAN_ANOMALY   = 28.5540

EPHEMERIS_TYPE = 0
CLASSIFICATION_TYPE = U
NORAD_CAT_ID   = 20261
ELEMENT_SET_NO = 999
REV_AT_EPOCH   = 66510
BSTAR          = .18405E-3
MEAN_MOTION_DOT = .624E-5
MEAN_MOTION_DDOT = 0

CCSDS_OMM_VERS = 2.0
CREATION_DATE  = 
ORIGINATOR     = 

OBJECT_NAME    = SL-14 R/B
OBJECT_ID      = 1989-080C
CENTER_NAME    = EARTH
REF_FRAME      = TEME
TIME_SYSTEM    = UTC
MEAN_ELEMENT_THEORY = SGP/SGP4

EPOCH          = 2026-02-24T08:27:42.970752
MEAN_MOTION    = 12.50474153
ECCENTRICITY   = .1230026
INCLINATION    = 82.5967
RA_OF_ASC_NODE = 181.7459
ARG_OF_PERICENTER = 215.2342
MEAN_ANOMALY   = 136.1117

EPHEMERIS_TYPE = 0
CLASSIFICATION_TYPE = U
NORAD_CAT_ID   = 20262
ELEMENT_SET_NO = 999
REV_AT_EPOCH   = 65848
BSTAR          = .18145E-3
MEAN_MOTION_DOT = .607E-5
MEAN_MOTION_DDOT = 0

CCSDS_OMM_VERS = 2.0
CREATION_DATE  = 
ORIGINATOR     = 

OBJECT_NAME    = DELTA 1 R/B
OBJECT_ID      = 1989-089B
CENTER_NAME    = EARTH
REF_FRAME      = TEME
TIME_SYSTEM    = UTC
MEAN_ELEMENT_THEORY = SGP/SGP4

EPOCH          = 2026-02-24T12:22:02.165376
MEAN_MOTION    = 14.50650688
ECCENTRICITY   = .0069543
INCLINATION    = 97.0714
RA_OF_ASC_NODE = 265.0487
ARG_OF_PERICENTER = 163.1254
MEAN_ANOMALY   = 197.2281

EPHEMERIS_TYPE = 0
CLASSIFICATION_TYPE = U
NORAD_CAT_ID   = 20323
ELEMENT_SET_NO = 999
REV_AT_EPOCH   = 89382
BSTAR          = .87067E-4
MEAN_MOTION_DOT = .317E-5
MEAN_MOTION_DDOT = 0

CCSDS_OMM_VERS = 2.0
CREATION_DATE  = 
ORIGINATOR     = 

OBJECT_NAME    = ARIANE 40 R/B
OBJECT_ID      = 1990-005H
CENTER_NAME    = EARTH
REF_FRAME      = TEME
TIME_SYSTEM    = UTC
MEAN_ELEMENT_THEORY = SGP/SGP4

EPOCH          = 2026-02-24T04:38:14.882784
MEAN_MOTION    = 14.39860434
ECCENTRICITY   = .00091071
INCLINATION    = 98.3115
RA_OF_ASC_NODE = 116.2549
ARG_OF_PERICENTER = 241.5792
MEAN_ANOMALY   = 118.4479

EPHEMERIS_TYPE = 0
CLASSIFICATION_TYPE = U
NORAD_CAT_ID   = 20443
ELEMENT_SET_NO = 999
REV_AT_EPOCH   = 89086
BSTAR          = .87524992E-4
MEAN_MOTION_DOT = .233E-5
MEAN_MOTION_DDOT = 0

